format  = 'OEF2.0'       ! file format
rectype = 'ML'           ! record type (1L/ML)
refsys  = ECLM J2000     ! default reference system
END_OF_HEADER
433
! Keplerian elements: a, e, i, long. node, arg. peric., mean anomaly
 KEP   1.4579190882613213E+00  2.2265751841780759E-01  10.8289349425634 304.3355623567347 178.7748559597630  6.7958313645092275E+01
 MJD     56708.026263277 TDT
 MAG  10.819  0.460
! Non-gravitational parameters: model used, number of model parameters, dimension
 LSP   0  0    6
! PERIHELION   1.1333024420151030E+00
! APHELION   1.7825357345075399E+00
! ANODE   7.6759794827403149E-01
! DNODE   1.4913069498653786E-01
! MOID   1.4912398122958267E-01
! PERIOD   6.4298162225900330E+02
! PHA F
! VINFTY     1.2458425626922
! U_PAR 0.0
! ORB_TYPE Amor  
! RMS    2.21643E-10   9.27850E-09   1.61465E-06   7.92462E-06   8.64131E-06   2.14114E-06
 COV   4.912541443028979E-20 -3.617079151338473E-19  9.975428612691631E-19
 COV  -1.769846097020538E-16  1.816805846405987E-16 -4.210528724806225E-17
 COV   8.609062349083366E-17  1.210883127764772E-15  1.142375528768732E-14
 COV  -8.162692721282137E-15  2.330880967565632E-15  2.607093534495195E-12
 COV   7.398197823911741E-13 -5.067347650412382E-13 -7.028452286666194E-14
 COV   6.279959356678096E-11 -6.303666869298810E-11  2.581113162491521E-12
 COV   7.467220035772110E-11 -9.462559999117652E-12  4.584465813213753E-12
 COR   1.000000000000000E+00 -1.758842585226709E-01  2.787405451828903E-03
 COR  -1.007636689372904E-01  9.485842964539903E-02 -8.872359928134695E-02
 COR   1.000000000000000E+00  8.082505242969112E-02  1.553647706566687E-01
 COR  -1.018066265908238E-01  1.173269551066643E-01  9.999999999999999E-01
 COR   5.781881907257098E-02 -3.631808324978689E-02 -2.032998346334660E-02
 COR   9.999999999999999E-01 -9.205245235002663E-01  1.521192795034960E-01
 COR   1.000000000000000E+00 -5.114283546868152E-01  1.000000000000000E+00
